NORAD_CAT_ID,OBJECT_NAME,OBJECT_TYPE,EPOCH,MEAN_MOTION,ECCENTRICITY,INCLINATION,RA_OF_ASC_NODE,ARG_OF_PERICENTER,MEAN_ANOMALY,BSTAR,MEAN_MOTION_DOT,MEAN_MOTION_DDOT,TLE_LINE0,TLE_LINE1,TLE_LINE2,SEMIMAJOR_AXIS,PERIOD,APOGEE,PERIGEE,DECAYED
55423.0,STARLINK-5068,PAYLOAD,2023-05-16 06:00:00,15.2393684,0.0003532,69.9989,158.2492,270.5381,82.7667,-0.042067,-0.00943858,0.0,0 STARLINK-5068,1 55423U 23014AJ  23136.25001157 -.00943858  00000-0 -42067-1 0  9994,2 55423  69.9989 158.2492 0003532 270.5381  82.7667 15.23936840 16555,6872.117,94.492,496.409,491.555,0.0
55423.0,STARLINK-5068,PAYLOAD,2023-05-16 14:00:01,15.23289489,0.0003503,69.9983,157.3751,274.5743,106.5725,-0.042773,-0.00941524,0.0,0 STARLINK-5068,1 55423U 23014AJ  23136.58335648 -.00941524  00000-0 -42773-1 0  9997,2 55423  69.9983 157.3751 0003503 274.5743 106.5725 15.23289489  1308,6874.064,94.532,498.337,493.521,0.0
55423.0,STARLINK-5068,PAYLOAD,2023-05-16 22:00:00,15.22603747,0.0003442,69.9982,156.502,267.7535,140.3442,-0.040353,-0.00864847,0.0,0 STARLINK-5068,1 55423U 23014AJ  23136.91667824 -.00864847  00000-0 -40353-1 0  9992,2 55423  69.9982 156.5020 0003442 267.7535 140.3442 15.22603747  1300,6876.127,94.575,500.359,495.626,0.0
55423.0,STARLINK-5068,PAYLOAD,2023-05-17 04:00:00,15.22159696,0.0003519,69.9985,155.8477,268.3661,69.4637,-0.045334,-0.00963263,0.0,0 STARLINK-5068,1 55423U 23014AJ  23137.16667824 -.00963263  00000-0 -45334-1 0  9996,2 55423  69.9985 155.8477 0003519 268.3661  69.4637 15.22159696 16697,6877.465,94.602,501.75,496.909,0.0
55423.0,STARLINK-5068,PAYLOAD,2023-05-17 22:00:00,15.2064582,0.0003304,69.9978,153.8878,269.702,214.7181,-0.042733,-0.00874796,0.0,0 STARLINK-5068,1 55423U 23014AJ  23137.91667824 -.00874796  00000-0 -42733-1 0  9991,2 55423  69.9978 153.8878 0003304 269.7020 214.7181 15.20645820 16807,6882.028,94.697,506.167,501.62,0.0
55423.0,STARLINK-5068,PAYLOAD,2023-05-18 14:00:01,15.19387519,0.0003261,69.9976,152.1492,274.8219,256.5551,-0.04896,-0.00959309,0.0,0 STARLINK-5068,1 55423U 23014AJ  23138.58334491 -.00959309  00000-0 -48960-1 0  9998,2 55423  69.9976 152.1492 0003261 274.8219 256.5551 15.19387519 16911,6885.827,94.775,509.938,505.447,0.0
55423.0,STARLINK-5068,PAYLOAD,2023-05-18 22:00:00,15.1869329,0.0003253,69.9976,151.2814,267.3754,286.3247,-0.045564,-0.00880723,0.0,0 STARLINK-5068,1 55423U 23014AJ  23138.91667824 -.00880723  00000-0 -45564-1 0  9994,2 55423  69.9976 151.2814 0003253 267.3754 286.3247 15.18693290  1306,6887.926,94.818,512.031,507.55,0.0
55423.0,STARLINK-5068,PAYLOAD,2023-05-19 06:00:00,15.18051052,0.0003295,69.9978,150.4142,270.4187,304.8155,-0.048659,-0.00920197,0.0,0 STARLINK-5068,1 55423U 23014AJ  23139.25001157 -.00920197  00000-0 -48659-1 0  9991,2 55423  69.9978 150.4142 0003295 270.4187 304.8155 15.18051052 17017,6889.868,94.858,514.004,509.463,0.0
55423.0,STARLINK-5068,PAYLOAD,2023-05-19 22:00:01,15.16737628,0.0003303,69.9975,148.6828,265.9894,350.014,-0.048281,-0.00882017,0.0,0 STARLINK-5068,1 55423U 23014AJ  23139.91668981 -.00882017  00000-0 -48281-1 0  9997,2 55423  69.9975 148.6828 0003303 265.9894 350.0140 15.16737628  1308,6893.845,94.941,517.987,513.433,0.0
55423.0,STARLINK-5068,PAYLOAD,2023-05-20 06:00:00,15.16090814,0.0003352,69.9978,147.8184,269.878,5.2505,-0.051068,-0.0091342,0.0,0 STARLINK-5068,1 55423U 23014AJ  23140.25001157 -.00913420  00000-0 -51068-1 0  9992,2 55423  69.9978 147.8184 0003352 269.8780   5.2505 15.16090814 17162,6895.806,94.981,519.982,515.359,0.0
55423.0,STARLINK-5068,PAYLOAD,2023-05-20 22:00:01,15.14783203,0.0003382,69.9976,146.0921,266.1016,45.1007,-0.051258,-0.00885424,0.0,0 STARLINK-5068,1 55423U 23014AJ  23140.91668981 -.00885424  00000-0 -51258-1 0  9992,2 55423  69.9976 146.0921 0003382 266.1016  45.1007 15.14783203  1303,6899.774,95.063,523.972,519.305,0.0
55423.0,STARLINK-5068,PAYLOAD,2023-05-21 06:00:00,15.14132443,0.0003407,69.9979,145.2303,270.3038,57.678,-0.053765,-0.00909903,0.0,0 STARLINK-5068,1 55423U 23014AJ  23141.25001157 -.00909903  00000-0 -53765-1 0  9990,2 55423  69.9979 145.2303 0003407 270.3038  57.6780 15.14132443 17318,6901.751,95.104,525.967,521.264,0.0
55423.0,STARLINK-5068,PAYLOAD,2023-05-21 09:19:42,15.15550329,0.0003577,69.9983,144.88,294.2714,65.808,-0.014452,-0.00265067,0.0,0 STARLINK-5068,1 55423U 23014AJ  23141.38868540 -.00265067  00000-0 -14452-1 0  9997,2 55423  69.9983 144.8800 0003577 294.2714  65.8080 15.15550329 18272,6897.445,95.015,521.778,516.843,0.0
55423.0,STARLINK-5068,PAYLOAD,2023-05-22 00:00:00,15.1269709,0.0003247,69.9981,143.2944,268.345,184.6374,-0.0581,-0.00941757,0.0,0 STARLINK-5068,1 55423U 23014AJ  23142.00001157 -.00941757  00000-0 -58100-1 0  9995,2 55423  69.9981 143.2944 0003247 268.3450 184.6374 15.12697090  1301,6906.116,95.194,530.223,525.738,0.0
55423.0,STARLINK-5068,PAYLOAD,2023-05-22 06:00:02,15.12175054,0.0003407,69.9981,142.6499,271.1242,102.7342,-0.056691,-0.00908202,0.0,0 STARLINK-5068,1 55423U 23014AJ  23142.25002315 -.00908202  00000-0 -56691-1 0  9990,2 55423  69.9981 142.6499 0003407 271.1242 102.7342 15.12175054 17469,6907.705,95.227,531.924,527.217,0.0
55423.0,STARLINK-5068,PAYLOAD,2023-05-22 14:00:01,15.11564378,0.0003357,69.9979,141.7917,273.4823,114.002,-0.061979,-0.00970926,0.0,0 STARLINK-5068,1 55423U 23014AJ  23142.58334491 -.00970926  00000-0 -61979-1 0  9996,2 55423  69.9979 141.7917 0003357 273.4823 114.0020 15.11564378  1300,6909.566,95.266,533.75,529.111,0.0
55423.0,STARLINK-5068,PAYLOAD,2023-05-22 22:00:00,15.10878439,0.0003368,69.9981,140.9343,267.4707,132.9438,-0.05817,-0.00899497,0.0,0 STARLINK-5068,1 55423U 23014AJ  23142.91667824 -.00899497  00000-0 -58170-1 0  9994,2 55423  69.9981 140.9343 0003368 267.4707 132.9438 15.10878439  1300,6911.657,95.309,535.85,531.194,0.0
55423.0,STARLINK-5068,PAYLOAD,2023-05-23 06:00:00,15.10217806,0.0003377,69.9984,140.0776,271.462,141.1045,-0.059805,-0.00907396,0.0,0 STARLINK-5068,1 55423U 23014AJ  23143.25001157 -.00907396  00000-0 -59805-1 0  9997,2 55423  69.9984 140.0776 0003377 271.4620 141.1045 15.10217806 17615,6913.672,95.35,537.872,533.202,0.0
55423.0,STARLINK-5068,PAYLOAD,2023-05-23 22:00:00,15.08927054,0.0003309,69.9984,138.367,267.2976,167.1934,-0.062035,-0.0090825,0.0,0 STARLINK-5068,1 55423U 23014AJ  23143.91667824 -.00908250  00000-0 -62035-1 0  9998,2 55423  69.9984 138.3670 0003309 267.2976 167.1934 15.08927054  1304,6917.614,95.432,541.768,537.19,0.0
55423.0,STARLINK-5068,PAYLOAD,2023-05-24 06:00:00,15.08260172,0.0003322,69.9986,137.513,271.1004,173.1979,-0.063026,-0.00906198,0.0,0 STARLINK-5068,1 55423U 23014AJ  23144.25001157 -.00906198  00000-0 -63026-1 0  9997,2 55423  69.9986 137.5130 0003322 271.1004 173.1979 15.08260172 17763,6919.653,95.474,543.817,539.22,0.0
55423.0,STARLINK-5068,PAYLOAD,2023-05-24 22:00:00,15.06976011,0.0003247,69.9986,135.8075,267.9515,193.5754,-0.066166,-0.00917672,0.0,0 STARLINK-5068,1 55423U 23014AJ  23144.91667824 -.00917672  00000-0 -66166-1 0  9996,2 55423  69.9986 135.8075 0003247 267.9515 193.5754 15.06976011  1302,6923.584,95.556,547.697,543.201,0.0
55423.0,STARLINK-5068,PAYLOAD,2023-05-25 06:00:00,15.06302548,0.0003299,69.9988,134.9561,274.0967,194.8926,-0.066351,-0.00904594,0.0,0 STARLINK-5068,1 55423U 23014AJ  23145.25001157 -.00904594  00000-0 -66351-1 0  9990,2 55423  69.9988 134.9561 0003299 274.0967 194.8926 15.06302548 17918,6925.647,95.598,549.797,545.227,0.0
55423.0,STARLINK-5068,PAYLOAD,2023-05-25 14:00:01,15.05687806,0.0003233,69.9985,134.1055,275.8883,199.7511,-0.072088,-0.00961824,0.0,0 STARLINK-5068,1 55423U 23014AJ  23145.58334491 -.00961824  00000-0 -72088-1 0  9999,2 55423  69.9985 134.1055 0003233 275.8883 199.7511 15.05687806  1301,6927.532,95.637,551.637,547.158,0.0
55423.0,STARLINK-5068,PAYLOAD,2023-05-26 00:00:02,15.04874823,0.0003207,69.9989,133.0435,267.8954,305.0356,-0.072876,-0.00952054,0.0,0 STARLINK-5068,1 55423U 23014AJ  23146.00002315 -.00952054  00000-0 -72876-1 0  9994,2 55423  69.9989 133.0435 0003207 267.8954 305.0356 15.04874823  1301,6930.027,95.689,554.114,549.669,0.0
55423.0,STARLINK-5068,PAYLOAD,2023-05-26 06:00:00,15.04344126,0.0003282,69.9988,132.4069,274.5171,212.1228,-0.069665,-0.00901191,0.0,0 STARLINK-5068,1 55423U 23014AJ  23146.25001157 -.00901191  00000-0 -69665-1 0  9992,2 55423  69.9988 132.4069 0003282 274.5171 212.1228 15.04344126 18071,6931.657,95.723,555.797,551.247,0.0
55423.0,STARLINK-5068,PAYLOAD,2023-05-26 14:00:01,15.03727305,0.0003208,69.9985,131.5588,274.9244,216.0194,-0.075569,-0.00968063,0.0,0 STARLINK-5068,1 55423U 23014AJ  23146.58334491 -.00968063  00000-0 -75569-1 0  9999,2 55423  69.9985 131.5588 0003208 274.9244 216.0194 15.03727305  1303,6933.552,95.762,557.641,553.193,0.0
55423.0,STARLINK-5068,PAYLOAD,2023-05-26 22:00:01,15.03072282,0.00032,69.9988,130.7117,269.6181,224.9219,-0.074863,-0.00933426,0.0,0 STARLINK-5068,1 55423U 23014AJ  23146.91668981 -.00933426  00000-0 -74863-1 0  9991,2 55423  69.9988 130.7117 0003200 269.6181 224.9219 15.03072282  1301,6935.566,95.804,559.651,555.212,0.0
55423.0,STARLINK-5068,PAYLOAD,2023-05-27 06:00:02,15.02384751,0.0003244,69.9987,129.8653,274.3528,222.9597,-0.072869,-0.00895076,0.0,0 STARLINK-5068,1 55423U 23014AJ  23147.25002315 -.00895076  00000-0 -72869-1 0  9994,2 55423  69.9987 129.8653 0003244 274.3528 222.9597 15.02384751 18222,6937.682,95.848,561.798,557.297,0.0
55423.0,STARLINK-5068,PAYLOAD,2023-05-27 22:00:00,15.0111929,0.0003167,69.9988,128.1753,269.567,230.8255,-0.079431,-0.00950675,0.0,0 STARLINK-5068,1 55423U 23014AJ  23147.91667824 -.00950675  00000-0 -79431-1 0  9998,2 55423  69.9988 128.1753 0003167 269.5670 230.8255 15.01119290 18327,6941.581,95.928,565.644,561.247,0.0
55423.0,STARLINK-5068,PAYLOAD,2023-05-28 06:00:00,15.0042621,0.0003142,69.9986,127.3316,275.0091,225.8098,-0.076216,-0.0088939,0.0,0 STARLINK-5068,1 55423U 23014AJ  23148.25001157 -.00889390  00000-0 -76216-1 0  9990,2 55423  69.9986 127.3316 0003142 275.0091 225.8098 15.00426210  1304,6943.718,95.973,567.765,563.401,0.0
